NORAD_CAT_ID,OBJECT_NAME,OBJECT_TYPE,EPOCH,MEAN_MOTION,ECCENTRICITY,INCLINATION,RA_OF_ASC_NODE,ARG_OF_PERICENTER,MEAN_ANOMALY,BSTAR,MEAN_MOTION_DOT,MEAN_MOTION_DDOT,TLE_LINE0,TLE_LINE1,TLE_LINE2,SEMIMAJOR_AXIS,PERIOD,APOGEE,PERIGEE,DECAYED
53430.0,STARLINK-4538,PAYLOAD,2024-06-14 21:37:05,15.08834149,0.0001889,53.218,64.8616,85.5065,274.6143,0.0001764,2.52e-05,0.0,0 STARLINK-4538,1 53430U 22097AU  24166.90075373  .00002520  00000-0  17640-3 0  9998,2 53430  53.2180  64.8616 0001889  85.5065 274.6143 15.08834149102779,6917.898,95.438,541.07,538.456,0.0
53430.0,STARLINK-4538,PAYLOAD,2024-06-15 10:20:09,15.08850158,0.0001536,53.218,62.4811,85.9595,274.1573,0.00019402,2.802e-05,0.0,0 STARLINK-4538,1 53430U 22097AU  24167.43066305  .00002802  00000-0  19402-3 0  9993,2 53430  53.2180  62.4811 0001536  85.9595 274.1573 15.08850158103312,6917.849,95.437,540.777,538.652,0.0
53430.0,STARLINK-4538,PAYLOAD,2024-06-15 23:03:15,15.08836381,0.0001298,53.2172,60.1026,87.0215,273.0926,7.2203e-05,8.61e-06,0.0,0 STARLINK-4538,1 53430U 22097AU  24167.96059233  .00000861  00000-0  72203-4 0  9995,2 53430  53.2172  60.1026 0001298  87.0215 273.0926 15.08836381103393,6917.891,95.438,540.654,538.859,0.0
53430.0,STARLINK-4538,PAYLOAD,2024-06-16 10:10:56,15.08856375,0.0001422,53.2173,58.0231,85.7662,274.3493,0.0002492,3.682e-05,0.0,0 STARLINK-4538,1 53430U 22097AU  24168.42426185  .00003682  00000-0  24920-3 0  9997,2 53430  53.2173  58.0231 0001422  85.7662 274.3493 15.08856375103464,6917.83,95.437,540.679,538.712,0.0
53430.0,STARLINK-4538,PAYLOAD,2024-06-16 22:54:02,15.08836393,0.0001588,53.2166,55.6417,99.6782,260.439,3.5573e-05,2.78e-06,0.0,0 STARLINK-4538,1 53430U 22097AU  24168.95419176  .00000278  00000-0  35573-4 0  9992,2 53430  53.2166  55.6417 0001588  99.6782 260.4390 15.08836393103544,6917.891,95.438,540.855,538.658,0.0
53430.0,STARLINK-4538,PAYLOAD,2024-06-17 22:44:49,15.08840178,0.0001427,53.218,51.1832,100.5798,259.5354,0.00027676,4.119e-05,0.0,0 STARLINK-4538,1 53430U 22097AU  24169.94779504  .00004119  00000-0  27676-3 0  9998,2 53430  53.2180  51.1832 0001427 100.5798 259.5354 15.08840178103694,6917.88,95.438,540.732,538.758,0.0
53430.0,STARLINK-4538,PAYLOAD,2024-06-18 22:35:36,15.08849851,0.000136,53.2184,46.7248,93.1665,266.9483,0.00036535,5.533e-05,0.0,0 STARLINK-4538,1 53430U 22097AU  24170.94139239  .00005533  00000-0  36535-3 0  9990,2 53430  53.2184  46.7248 0001360  93.1665 266.9483 15.08849851103844,6917.85,95.437,540.656,538.774,0.0
53430.0,STARLINK-4538,PAYLOAD,2024-06-19 01:46:22,15.08853173,0.0001357,53.218,46.1301,93.4019,266.7128,0.00039103,5.943e-05,0.0,0 STARLINK-4538,1 53430U 22097AU  24171.07387041  .00005943  00000-0  39103-3 0  9990,2 53430  53.2180  46.1301 0001357  93.4019 266.7128 15.08853173103404,6917.84,95.437,540.644,538.766,0.0
53430.0,STARLINK-4538,PAYLOAD,2024-06-19 08:07:54,15.08856755,0.0001364,53.2181,44.9407,93.8477,266.2671,0.00038294,5.815e-05,0.0,0 STARLINK-4538,1 53430U 22097AU  24171.33882695  .00005815  00000-0  38294-3 0  9992,2 53430  53.2181  44.9407 0001364  93.8477 266.2671 15.08856755103900,6917.829,95.436,540.638,538.751,0.0
53430.0,STARLINK-4538,PAYLOAD,2024-06-19 20:51:00,15.08835433,0.0001446,53.2181,42.5619,98.7972,261.3184,-0.00012989,-2.354e-05,0.0,0 STARLINK-4538,1 53430U 22097AU  24171.86875354 -.00002354  00000-0 -12989-3 0  9994,2 53430  53.2181  42.5619 0001446  98.7972 261.3184 15.08835433103527,6917.894,95.438,540.76,538.759,0.0
53430.0,STARLINK-4538,PAYLOAD,2024-06-19 22:26:23,15.08836466,0.0001444,53.218,42.2635,100.9108,259.2047,-0.00010692,-1.989e-05,0.0,0 STARLINK-4538,1 53430U 22097AU  24171.93499321 -.00001989  00000-0 -10692-3 0  9990,2 53430  53.2180  42.2635 0001444 100.9108 259.2047 15.08836466103998,6917.891,95.438,540.755,538.757,0.0
53430.0,STARLINK-4538,PAYLOAD,2024-06-20 14:20:14,15.08842765,0.0001422,53.2177,39.289,100.2857,259.8295,0.00012337,1.676e-05,0.0,0 STARLINK-4538,1 53430U 22097AU  24172.59739233  .00001676  00000-0  12337-3 0  9991,2 53430  53.2177  39.2890 0001422 100.2857 259.8295 15.08842765104095,6917.872,95.437,540.721,538.753,0.0
53430.0,STARLINK-4538,PAYLOAD,2024-06-20 22:17:10,15.08836239,0.0001352,53.2176,37.8013,99.4935,260.621,0.0001906,2.746e-05,0.0,0 STARLINK-4538,1 53430U 22097AU  24172.92859606  .00002746  00000-0  19060-3 0  9994,2 53430  53.2176  37.8013 0001352  99.4935 260.6210 15.08836239103683,6917.892,95.438,540.692,538.822,0.0
53430.0,STARLINK-4538,PAYLOAD,2024-06-21 22:07:57,15.08840012,0.0001172,53.2166,33.3416,95.5437,264.5689,0.00019681,2.846e-05,0.0,0 STARLINK-4538,1 53430U 22097AU  24173.92219813  .00002846  00000-0  19681-3 0  9995,2 53430  53.2166  33.3416 0001172  95.5437 264.5689 15.08840012104299,6917.88,95.438,540.556,538.935,0.0
53430.0,STARLINK-4538,PAYLOAD,2024-06-22 14:01:49,15.08843109,0.0001167,53.2166,30.3683,95.5476,264.565,0.00025006,3.694e-05,0.0,0 STARLINK-4538,1 53430U 22097AU  24174.58459839  .00003694  00000-0  25006-3 0  9992,2 53430  53.2166  30.3683 0001167  95.5476 264.5650 15.08843109103937,6917.871,95.437,540.543,538.929,0.0
53430.0,STARLINK-4538,PAYLOAD,2024-06-22 20:23:21,15.08842787,0.000113,53.2161,29.1779,89.3658,270.7464,0.00020806,3.025e-05,0.0,0 STARLINK-4538,1 53430U 22097AU  24174.84955879  .00003025  00000-0  20806-3 0  9997,2 53430  53.2161  29.1779 0001130  89.3658 270.7464 15.08842787104436,6917.872,95.437,540.519,538.955,0.0
53430.0,STARLINK-4538,PAYLOAD,2024-06-23 20:14:08,15.08843727,0.0001291,53.2166,24.7165,94.5899,265.5241,0.00016428,2.328e-05,0.0,0 STARLINK-4538,1 53430U 22097AU  24175.84315826  .00002328  00000-0  16428-3 0  9990,2 53430  53.2166  24.7165 0001291  94.5899 265.5241 15.08843727104120,6917.869,95.437,540.627,538.841,0.0
53430.0,STARLINK-4538,PAYLOAD,2024-06-23 23:24:55,15.08846747,0.0001297,53.217,24.1214,98.1459,261.968,0.00018765,2.7e-05,0.0,0 STARLINK-4538,1 53430U 22097AU  24175.97563685  .00002700  00000-0  18765-3 0  9992,2 53430  53.2170  24.1214 0001297  98.1459 261.9680 15.08846747104607,6917.86,95.437,540.622,538.828,0.0
53430.0,STARLINK-4538,PAYLOAD,2024-06-24 20:04:55,15.08840692,0.0001414,53.2171,20.2551,113.4457,246.6684,7.267e-05,8.69e-06,0.0,0 STARLINK-4538,1 53430U 22097AU  24176.83675903  .00000869  00000-0  72670-4 0  9995,2 53430  53.2171  20.2551 0001414 113.4457 246.6684 15.08840692104279,6917.878,95.438,540.721,538.765,0.0
53430.0,STARLINK-4538,PAYLOAD,2024-06-25 21:31:06,15.08843286,0.0001495,53.2181,15.494,109.4722,250.6432,0.00012851,1.758e-05,0.0,0 STARLINK-4538,1 53430U 22097AU  24177.89659785  .00001758  00000-0  12851-3 0  9994,2 53430  53.2181  15.4940 0001495 109.4722 250.6432 15.08843286104893,6917.87,95.437,540.77,538.701,0.0
53430.0,STARLINK-4538,PAYLOAD,2024-06-27 05:18:48,15.08845428,0.0001417,53.2181,9.5507,92.1531,267.9623,0.00012375,1.682e-05,0.0,0 STARLINK-4538,1 53430U 22097AU  24179.22139607  .00001682  00000-0  12375-3 0  9996,2 53430  53.2181   9.5507 0001417  92.1531 267.9623 15.08845428104631,6917.864,95.437,540.709,538.749,0.0
53430.0,STARLINK-4538,PAYLOAD,2024-06-27 19:37:17,15.08830029,0.0001432,53.2172,6.8798,110.9366,249.178,-0.00016582,-2.925e-05,0.0,0 STARLINK-4538,1 53430U 22097AU  24179.81756293 -.00002925  00000-0 -16582-3 0  9994,2 53430  53.2172   6.8798 0001432 110.9366 249.1780 15.08830029104722,6917.911,95.438,540.767,538.785,0.0
53430.0,STARLINK-4538,PAYLOAD,2024-06-28 05:09:35,15.08844749,0.0001148,53.2166,5.0878,93.1206,266.9918,0.00012178,1.651e-05,0.0,0 STARLINK-4538,1 53430U 22097AU  24180.21499784  .00001651  00000-0  12178-3 0  9999,2 53430  53.2166   5.0878 0001148  93.1206 266.9918 15.08844749104784,6917.866,95.437,540.525,538.937,0.0
53430.0,STARLINK-4538,PAYLOAD,2024-06-28 17:52:41,15.08834023,0.0001381,53.2178,2.7125,88.6564,271.4587,0.00031208,4.682e-05,0.0,0 STARLINK-4538,1 53430U 22097AU  24180.74492311  .00004682  00000-0  31208-3 0  9998,2 53430  53.2178   2.7125 0001381  88.6564 271.4587 15.08834023104867,6917.899,95.438,540.719,538.808,0.0
53430.0,STARLINK-4538,PAYLOAD,2024-06-29 05:00:22,15.08859882,0.0001098,53.2163,0.6333,72.6164,287.4949,0.00054373,8.381e-05,0.0,0 STARLINK-4538,1 53430U 22097AU  24181.20858916  .00008381  00000-0  54373-3 0  9995,2 53430  53.2163   0.6333 0001098  72.6164 287.4949 15.08859882104930,6917.82,95.436,540.444,538.925,0.0
53430.0,STARLINK-4538,PAYLOAD,2024-06-29 19:18:52,15.0882421,0.0001376,53.2159,357.9528,66.6376,293.476,-0.00013288,-2.401e-05,0.0,0 STARLINK-4538,1 53430U 22097AU  24181.80477042 -.00002401  00000-0 -13288-3 0  9997,2 53430  53.2159 357.9528 0001376  66.6376 293.4760 15.08824210105022,6917.929,95.439,540.746,538.842,0.0
53430.0,STARLINK-4538,PAYLOAD,2024-06-29 20:54:15,15.08825303,0.0001531,53.2159,357.6553,74.8892,285.2269,-0.00011859,-2.174e-05,0.0,0 STARLINK-4538,1 53430U 22097AU  24181.87101065 -.00002174  00000-0 -11859-3 0  9992,2 53430  53.2159 357.6553 0001531  74.8892 285.2269 15.08825303105492,6917.925,95.438,540.849,538.731,0.0
53430.0,STARLINK-4538,PAYLOAD,2024-06-30 04:51:10,15.08837936,0.0001409,53.2174,356.1706,78.8486,281.2664,4.1077e-05,3.66e-06,0.0,0 STARLINK-4538,1 53430U 22097AU  24182.20220556  .00000366  00000-0  41077-4 0  9992,2 53430  53.2174 356.1706 0001409  78.8486 281.2664 15.08837936105085,6917.887,95.438,540.726,538.777,0.0
53430.0,STARLINK-4538,PAYLOAD,2024-06-30 11:12:43,15.08835303,0.0001024,53.2156,354.9832,79.3845,280.7263,8.9929e-05,1.144e-05,0.0,0 STARLINK-4538,1 53430U 22097AU  24182.46716578  .00001144  00000-0  89929-4 0  9997,2 53430  53.2156 354.9832 0001024  79.3845 280.7263 15.08835303105589,6917.895,95.438,540.468,539.051,0.0
53430.0,STARLINK-4538,PAYLOAD,2024-06-30 19:09:39,15.0884061,0.0001309,53.2154,353.4965,70.0461,290.0672,0.00080857,0.00012604,0.0,0 STARLINK-4538,1 53430U 22097AU  24182.79837091  .00012604  00000-0  80857-3 0  9990,2 53430  53.2154 353.4965 0001309  70.0461 290.0672 15.08840610105637,6917.879,95.438,540.649,538.838,0.0
